{
  "Bengaluru": [
    {
      "distance_km": 0.835,
      "id": 3400223541,
      "lat": 12.968031,
      "lon": 77.5878222,
      "name": "Dr. Rajkumar Blood Bank",
      "osm_type": "node",
      "tags": {
        "amenity": "hospital",
        "name": "Dr. Rajkumar Blood Bank"
      }
    },
    {
      "distance_km": 1.266,
      "id": 3773028057,
      "lat": 12.9603157,
      "lon": 77.5930493,
      "name": "HCG Cancer Hospital",
      "osm_type": "node",
      "tags": {
        "addr:city": "Bengaluru",
        "addr:district": "Bengaluru Urban",
        "addr:full": "44-45/2, 2nd Cross Raja Rammohan Roy Extn Off Lalbagh Double Road",
        "addr:postcode": "560027",
        "addr:state": "Karnataka",
        "amenity": "hospital",
        "building": "hospital",
        "name": "HCG Cancer Hospital",
        "source": "OpenGovernmentData",
        "website": "https://www.hcgoncology.com/"
      }
    },
    {
      "distance_km": 1.313,
      "id": 1005544881,
      "lat": 12.9815051,
      "lon": 77.6011944,
      "name": "Mallya Audikesh Diagnostics Center",
      "osm_type": "node",
      "tags": {
        "addr:city": "Bangalore",
        "addr:housenumber": "55",
        "addr:postcode": "560001",
        "addr:street": "Infantry Road",
        "amenity": "hospital",
        "email": "bengaluru@medinovaindia.com",
        "fax": "+918022867244",
        "name": "Mallya Audikesh Diagnostics Center",
        "phone": "+918022868423",
        "website": "http://www.medinovaindia.com"
      }
    },
    {
      "distance_km": 1.488,
      "id": 3922280181,
      "lat": 12.9584755,
      "lon": 77.5919279,
      "name": "Health Care Global",
      "osm_type": "node",
      "tags": {
        "amenity": "hospital",
        "name": "Health Care Global"
      }
    },
    {
      "distance_km": 1.684,
      "id": 1454651986,
      "lat": 12.9671401,
      "lon": 77.6094485,
      "name": "Narayana Netralaya",
      "osm_type": "node",
      "tags": {
        "addr:district": "Bengaluru Urban",
        "addr:full": "#37, Castle Street, Opp Sacred Heart Church, Ashok Nagar, B.E",
        "addr:housenumber": "37",
        "addr:postcode": "560025",
        "addr:state": "Karnataka",
        "addr:street": "Castle Street",
        "amenity": "hospital",
        "name": "Narayana Netralaya",
        "name:kn": "ನಾರಾಯಣ ನೇತ್ರಾಲಯ",
        "source": "OpenGovernmentData"
      }
    },
    {
      "distance_km": 2.097,
      "id": 3714125744,
      "lat": 12.9900105,
      "lon": 77.5988107,
      "name": "Shifa Hospital, Bengaluru Urban",
      "osm_type": "node",
      "tags": {
        "addr:district": "Bengaluru Urban",
        "addr:full": "Queens Road",
        "addr:state": "Karnataka",
        "addr:street": "Queen's Road",
        "amenity": "hospital",
        "name": "Shifa Hospital, Bengaluru Urban",
        "name:kn": "ಶಿಫಾ ಆಸ್ಪತ್ರೆ",
        "operator:type": "private",
        "source": "OpenGovernmentData",
        "website": "http://dpal.kar.nic.in/Kanunu%20padakosha%20PDF%20Files/Recognised%20Hospitals.pdf"
      }
    },
    {
      "distance_km": 2.162,
      "id": 1006462338,
      "lat": 12.985247,
      "lon": 77.5803846,
      "name": "Mallige Medical Centre",
      "osm_type": "node",
      "tags": {
        "addr:city": "Bangalore",
        "addr:housenumber": "31/32",
        "addr:postcode": "560001",
        "addr:street": "Crescent Rd,Nehru Nagar,Gandhi Nagar",
        "amenity": "hospital",
        "name": "Mallige Medical Centre",
        "phone": "080 2220 3333",
        "website": "https://www.mallige.com/"
      }
    },
    {
      "distance_km": 2.576,
      "id": 1474512442,
      "lat": 12.9484356,
      "lon": 77.5942592,
      "name": "Karthik Hospital",
      "osm_type": "node",
      "tags": {
        "addr:street": "8th Cross",
        "amenity": "hospital",
        "healthcare": "hospital",
        "name": "Karthik Hospital",
        "name:kn": "ಕಾರ್ತಿಕ್ ಆಸ್ಪತ್ರೆ"
      }
    },
    {
      "distance_km": 2.585,
      "id": 1474511948,
      "lat": 12.9483598,
      "lon": 77.5940621,
      "name": "Manjunath Hospital",
      "osm_type": "node",
      "tags": {
        "addr:district": "Bengaluru Urban",
        "addr:full": "87/2, 8Th Cross,Wilson Garden",
        "addr:postcode": "560027",
        "addr:state": "Karnataka",
        "amenity": "hospital",
        "healthcare": "hospital",
        "name": "Manjunath Hospital",
        "name:kn": "ಮಂಜುನಾಥ ಆಸ್ಪತ್ರೆ",
        "source": "OpenGovernmentData"
      }
    },
    {
      "distance_km": 2.725,
      "id": 3710210170,
      "lat": 12.9474222,
      "lon": 77.5986921,
      "name": "Krishna Nursing Home",
      "osm_type": "node",
      "tags": {
        "amenity": "hospital",
        "healthcare": "hospital",
        "name": "Krishna Nursing Home"
      }
    },
    {
      "distance_km": 3.071,
      "id": 1085786951,
      "lat": 12.9452313,
      "lon": 77.5861734,
      "name": "Lalbagh Nursing Home",
      "osm_type": "node",
      "tags": {
        "addr:street": "Siddapura Road",
        "amenity": "hospital",
        "name": "Lalbagh Nursing Home",
        "name:kn": "ಲಾಲ್ಬಾಗ್ ನರ್ಸಿಂಗ್ ಹೋಂ"
      }
    },
    {
      "distance_km": 3.09,
      "id": 1474432217,
      "lat": 12.9438988,
      "lon": 77.5968766,
      "name": "Vignan Hospital",
      "osm_type": "node",
      "tags": {
        "amenity": "hospital",
        "healthcare": "hospital",
        "name": "Vignan Hospital",
        "website": "https://bidsinstitution.com/"
      }
    },
    {
      "distance_km": 3.219,
      "id": 1617398469,
      "lat": 12.9926441,
      "lon": 77.5742046,
      "name": "Sri Maruthi hospital, Sheshadripuram",
      "osm_type": "node",
      "tags": {
        "addr:city": "bangalore",
        "addr:district": "Bengaluru Urban",
        "addr:full": "No.67,Link Road,Sheshadripuram",
        "addr:housenumber": "67",
        "addr:postcode": "560020",
        "addr:state": "Karnataka",
        "addr:street": "Link Rd, Malleswaram, Jai Bheema Nagar, Seshadripuram",
        "amenity": "hospital",
        "healthcare": "hospital",
        "name": "Sri Maruthi hospital, Sheshadripuram",
        "phone": "080 2344 9632",
        "source": "OpenGovernmentData"
      }
    },
    {
      "distance_km": 3.228,
      "id": 1469181813,
      "lat": 12.995625,
      "lon": 77.6113272,
      "name": "Seventh Day Adventist Hospital",
      "osm_type": "node",
      "tags": {
        "addr:city": "Bengaluru",
        "addr:country": "IN",
        "addr:hamlet": "Frazer Town",
        "addr:postcode": "560005",
        "addr:street": "Saunders Road",
        "amenity": "hospital",
        "name": "Seventh Day Adventist Hospital",
        "name:kn": "ಸೆವೆಂತ್ ಡೇ ಅಡ್ವೆನ್ಟಿಸ್ಟ್ ಆಸ್ಪತ್ರೆ"
      }
    },
    {
      "distance_km": 3.333,
      "id": 663604723,
      "lat": 12.9503234,
      "lon": 77.6162619,
      "name": "Government Primary Health Centre",
      "osm_type": "node",
      "tags": {
        "amenity": "hospital",
        "healthcare": "hospital",
        "name": "Government Primary Health Centre",
        "name:kn": "ಸರ್ಕಾರಿ ಪ್ರಾಥಮಿಕ ಆರೋಗ್ಯ ಕೇಂದ್ರ",
        "ups_hospital": "hospital"
      }
    },
    {
      "distance_km": 3.336,
      "id": 1101622501,
      "lat": 12.9988604,
      "lon": 77.5817424,
      "name": "Government Maternity Hospital",
      "osm_type": "node",
      "tags": {
        "amenity": "hospital",
        "name": "Government Maternity Hospital",
        "name:kn": "ಸರಕಾರಿ ಹೆರಿಗೆ ಆಸ್ಪತ್ರೆ"
      }
    },
    {
      "distance_km": 3.341,
      "id": 4349307192,
      "lat": 12.9485535,
      "lon": 77.5748248,
      "name": "Sagar Chandramma Hospitals",
      "osm_type": "node",
      "tags": {
        "amenity": "hospital",
        "check_date": "2024-03-09",
        "healthcare:speciality": "gynaecology",
        "name": "Sagar Chandramma Hospitals",
        "name:en": "Sagar Chandramma Hospitals"
      }
    },
    {
      "distance_km": 3.345,
      "id": 3394753831,
      "lat": 12.9425246,
      "lon": 77.6025303,
      "name": "Sree Venkateshwara Speciality Hospital",
      "osm_type": "node",
      "tags": {
        "addr:district": "Bengaluru Urban",
        "addr:full": "1, 1st Cross, Gupta Layout,Lakksandra, Near Dairy Circle",
        "addr:housenumber": "#1",
        "addr:postcode": "560030",
        "addr:state": "Karnataka",
        "addr:street": "Bannerghatta Road",
        "amenity": "hospital",
        "name": "Sree Venkateshwara Speciality Hospital",
        "name:kn": "ಶ್ರೀ ವೆಂಕಟೆಶ್ವರ ಆಸ್ಪತ್ರೆ"
      }
    },
    {
      "distance_km": 3.372,
      "id": 1440343668,
      "lat": 12.942614,
      "lon": 77.5854533,
      "name": "Maiya Multispecialty Hospital",
      "osm_type": "node",
      "tags": {
        "addr:district": "Bengaluru Urban",
        "addr:full": "34, 10Th Main 1st Block, Jayanagar",
        "addr:postcode": "560011",
        "addr:state": "Karnataka",
        "amenity": "hospital",
        "name": "Maiya Multispecialty Hospital",
        "source": "OpenGovernmentData",
        "wheelchair": "yes"
      }
    },
    {
      "distance_km": 3.545,
      "id": 1905152108,
      "lat": 12.9411061,
      "lon": 77.5850591,
      "name": "Kottakkal Arya Vaidya Sala",
      "osm_type": "node",
      "tags": {
        "amenity": "hospital",
        "emergency": "no",
        "name": "Kottakkal Arya Vaidya Sala",
        "source": "survey"
      }
    },
    {
      "distance_km": 3.647,
      "id": 1474472859,
      "lat": 12.9388056,
      "lon": 77.5942994,
      "name": "NIMHANS OPD",
      "osm_type": "node",
      "tags": {
        "amenity": "hospital",
        "healthcare": "hospital",
        "name": "NIMHANS OPD"
      }
    },
    {
      "distance_km": 3.658,
      "id": 1474472488,
      "lat": 12.9387115,
      "lon": 77.5937737,
      "name": "NIMHANS Screening block",
      "osm_type": "node",
      "tags": {
        "amenity": "hospital",
        "description": "Patients initally should come here to scrrened to refer to the appropriate department for their disorder",
        "emergency": "no",
        "healthcare": "hospital",
        "name": "NIMHANS Screening block"
      }
    },
    {
      "distance_km": 3.731,
      "id": 1067181192,
      "lat": 13.0038999,
      "lon": 77.6039313,
      "name": "Devine Hospital",
      "osm_type": "node",
      "tags": {
        "addr:district": "Bengaluru Urban",
        "addr:full": "110,6Th Main Iti Layout Benson Town Post",
        "addr:postcode": "560046",
        "addr:state": "Karnataka",
        "amenity": "hospital",
        "name": "Devine Hospital",
        "name:kn": "ಡಿವೈನ್ ಆಸ್ಪತ್ರೆ",
        "source": "OpenGovernmentData"
      }
    },
    {
      "distance_km": 3.747,
      "id": 1474820321,
      "lat": 12.9970915,
      "lon": 77.5719766,
      "name": "Baptist",
      "osm_type": "node",
      "tags": {
        "amenity": "hospital",
        "healthcare": "hospital",
        "name": "Baptist"
      }
    },
    {
      "distance_km": 3.824,
      "id": 2533566686,
      "lat": 13.0007683,
      "lon": 77.6132902,
      "name": "United Medical lab",
      "osm_type": "node",
      "tags": {
        "amenity": "hospital",
        "name": "United Medical lab",
        "name:kn": "ಯುನೈಟೆಡ್ ಮೆಡಿಕಲ್ ಲ್ಯಾಬ್"
      }
    },
    {
      "distance_km": 3.893,
      "id": 1438212033,
      "lat": 12.9367955,
      "lon": 77.5907094,
      "name": "SDS Tuberculosis Research Centre and Rajiv Gandhi Institute of Chest diseases",
      "osm_type": "node",
      "tags": {
        "amenity": "hospital",
        "designation": "Sanatorium",
        "emergency": "no",
        "name": "SDS Tuberculosis Research Centre and Rajiv Gandhi Institute of Chest diseases",
        "research": "medical"
      }
    },
    {
      "distance_km": 4.064,
      "id": 1469314053,
      "lat": 12.9965077,
      "lon": 77.6220456,
      "name": "Srinivasa Nursing Home",
      "osm_type": "node",
      "tags": {
        "amenity": "hospital",
        "name": "Srinivasa Nursing Home"
      }
    },
    {
      "distance_km": 4.079,
      "id": 582384953,
      "lat": 12.9376734,
      "lon": 77.5802836,
      "name": "Bengaluru Hospital, Susruta Medical Aid AndResearch Home Limited",
      "osm_type": "node",
      "tags": {
        "addr:district": "Bengaluru Urban",
        "addr:full": "202, R.V.Road",
        "addr:postcode": "560001",
        "addr:state": "Karnataka",
        "addr:street": "Rashtriya Vidyalaya Road",
        "amenity": "hospital",
        "email": "info@Bengaluruhospital.co.in",
        "healthcare": "hospital",
        "name": "Bengaluru Hospital, Susruta Medical Aid AndResearch Home Limited",
        "name:kn": "ಬೆಂಗಳೂರು ಆಸ್ಪತ್ರೆ",
        "operator:type": "private",
        "source": "OpenGovernmentData",
        "website": "http://dpal.kar.nic.in/Kanunu%20padakosha%20PDF%20Files/Recognised%20Hospitals.pdf"
      }
    },
    {
      "distance_km": 4.092,
      "id": 769216417,
      "lat": 12.9364329,
      "lon": 77.583477,
      "name": "Ramakrishna Nursing Home and Hospital",
      "osm_type": "node",
      "tags": {
        "amenity": "hospital",
        "healthcare": "hospital",
        "name": "Ramakrishna Nursing Home and Hospital"
      }
    },
    {
      "distance_km": 4.094,
      "id": 1466638204,
      "lat": 12.9423039,
      "lon": 77.6174893,
      "name": "Srinivasa Nursing Home",
      "osm_type": "node",
      "tags": {
        "amenity": "hospital",
        "healthcare": "hospital",
        "name": "Srinivasa Nursing Home"
      }
    },
    {
      "distance_km": 4.098,
      "id": 1473921774,
      "lat": 12.9458714,
      "lon": 77.5675192,
      "name": "Shekar Hospital",
      "osm_type": "node",
      "tags": {
        "addr:district": "Bengaluru Urban",
        "addr:full": "No.81,Bulltemple Road,Near Ramakrishna Ashram",
        "addr:postcode": "560019",
        "addr:state": "Karnataka",
        "addr:street": "Shyamaraja Iyengar Road",
        "amenity": "hospital",
        "emergency": "no",
        "name": "Shekar Hospital",
        "name:en": "Shekhar Hospital",
        "name:hi": "शेखर हॉस्पिटल",
        "name:kn": "ಶೇಖರ್ ಹಾಸ್ಪಿಟಲ್",
        "source": "OpenGovernmentData"
      }
    },
    {
      "distance_km": 4.145,
      "id": 4286285517,
      "lat": 12.9777082,
      "lon": 77.6323407,
      "name": "Ameena Medical centre",
      "osm_type": "node",
      "tags": {
        "addr:housenumber": "111(3/1)",
        "addr:street": "18th Cross Road",
        "amenity": "hospital",
        "description": "hospital",
        "healthcare": "hospital",
        "name": "Ameena Medical centre"
      }
    },
    {
      "distance_km": 4.191,
      "id": 3400223539,
      "lat": 13.0002667,
      "lon": 77.5694894,
      "name": "Leela Hospital and Diagnostic Center",
      "osm_type": "node",
      "tags": {
        "addr:district": "Bengaluru Urban",
        "addr:full": "# 133, Margosa Road,10Th Cross, Malleshwaram",
        "addr:postcode": "560003",
        "addr:state": "Karnataka",
        "amenity": "hospital",
        "healthcare": "hospital",
        "name": "Leela Hospital and Diagnostic Center",
        "source": "OpenGovernmentData"
      }
    },
    {
      "distance_km": 4.326,
      "id": 1474458358,
      "lat": 12.9351929,
      "lon": 77.6086817,
      "name": "Prasad Eye Hospital",
      "osm_type": "node",
      "tags": {
        "amenity": "hospital",
        "healthcare": "hospital",
        "name": "Prasad Eye Hospital"
      }
    },
    {
      "distance_km": 4.451,
      "id": 2554302512,
      "lat": 12.9843701,
      "lon": 77.555666,
      "name": "Pragathi Ayurvedic Center",
      "osm_type": "node",
      "tags": {
        "amenity": "hospital",
        "name": "Pragathi Ayurvedic Center",
        "wheelchair": "no"
      }
    },
    {
      "distance_km": 4.461,
      "id": 3370453173,
      "lat": 12.9734836,
      "lon": 77.6357281,
      "name": "Netradama Eye Hospital",
      "osm_type": "node",
      "tags": {
        "amenity": "hospital",
        "healthcare": "hospital",
        "name": "Netradama Eye Hospital",
        "name:kn": "ನೇತ್ರಧಾಮ ಕಣ್ಣಿನ ಆಸ್ಪತ್ರೆ"
      }
    },
    {
      "distance_km": 4.516,
      "id": 4322812542,
      "lat": 12.9700356,
      "lon": 77.6362439,
      "name": "Dr.Agarwal Eye & Dental Hospital",
      "osm_type": "node",
      "tags": {
        "amenity": "hospital",
        "healthcare": "hospital",
        "name": "Dr.Agarwal Eye & Dental Hospital"
      }
    },
    {
      "distance_km": 4.532,
      "id": 1471128628,
      "lat": 12.9382768,
      "lon": 77.6186753,
      "name": "Pristine Health care",
      "osm_type": "node",
      "tags": {
        "amenity": "hospital",
        "emergency": "yes",
        "healthcare": "hospital",
        "name": "Pristine Health care"
      }
    },
    {
      "distance_km": 4.546,
      "id": 3370279044,
      "lat": 12.9766951,
      "lon": 77.6362278,
      "name": "Rashmi Hospital",
      "osm_type": "node",
      "tags": {
        "addr:street": "Indiranagar Double Road (Paramahansa Yogananda road)",
        "amenity": "hospital",
        "healthcare": "hospital",
        "name": "Rashmi Hospital",
        "name:kn": "ರಶ್ಮಿ ಆಸ್ಪತ್ರೆ"
      }
    },
    {
      "distance_km": 4.672,
      "id": 625856709,
      "lat": 13.0011275,
      "lon": 77.5639285,
      "name": "Manipal Northside Hospital",
      "osm_type": "node",
      "tags": {
        "addr:city": "bangalore",
        "addr:district": "Bengaluru Urban",
        "addr:full": "71, 11Th Main Road, Opposite Malleshwaram Railway Station, Malleshwaram",
        "addr:housenumber": "71",
        "addr:postcode": "560003",
        "addr:state": "Karnataka",
        "addr:street": "11th Main Road, Opp Railway Station, Malleswaram",
        "amenity": "hospital",
        "name": "Manipal Northside Hospital",
        "phone": "080 2222 1111",
        "source": "OpenGovernmentData",
        "wheelchair": "yes"
      }
    },
    {
      "distance_km": 4.694,
      "id": 3370244392,
      "lat": 12.9762645,
      "lon": 77.6376528,
      "name": "Respiratory and womens health clinic.",
      "osm_type": "node",
      "tags": {
        "amenity": "hospital",
        "healthcare": "hospital",
        "name": "Respiratory and womens health clinic."
      }
    },
    {
      "distance_km": 4.719,
      "id": 3370028968,
      "lat": 12.9784409,
      "lon": 77.6375845,
      "name": "Motherhood Hospital(Unit Of Rhea Healthcare Pvt Ltd)",
      "osm_type": "node",
      "tags": {
        "addr:district": "Bengaluru Urban",
        "addr:full": "No. 324, Cmh Road Indiranagar 1st Stage Next To Vijaya Bank Building",
        "addr:postcode": "560038",
        "addr:state": "Karnataka",
        "amenity": "hospital",
        "healthcare": "hospital",
        "name": "Motherhood Hospital(Unit Of Rhea Healthcare Pvt Ltd)",
        "name:kn": "ಮದರ್‌ಹುಡ್",
        "source": "OpenGovernmentData"
      }
    },
    {
      "distance_km": 4.744,
      "id": 4097027897,
      "lat": 12.9292418,
      "lon": 77.5893625,
      "name": "Gulecha Dental Care",
      "osm_type": "node",
      "tags": {
        "addr:city": "Bangalore",
        "addr:district": "Bengaluru Urban",
        "addr:housenumber": "32/29",
        "addr:postcode": "560011",
        "addr:street": "4th Cross Road, KV Layout, Jayanagar 4th Block",
        "amenity": "hospital",
        "healthcare": "hospital",
        "healthcare:speciality": "dental_oral_maxillo_facial_surgery",
        "mobile": "+919481404000",
        "name": "Gulecha Dental Care",
        "operator": "Dr. Preeti",
        "operator:type": "private",
        "website": "https://www.gulechadental.com/"
      }
    },
    {
      "distance_km": 4.759,
      "id": 1473296715,
      "lat": 12.9293288,
      "lon": 77.5877091,
      "name": "Jayanagar Orthopaedic Centre",
      "osm_type": "node",
      "tags": {
        "addr:district": "Bengaluru Urban",
        "addr:full": "24/1-1, 14Th Main, 4Th Block East Jayanagar",
        "addr:postcode": "560041",
        "addr:state": "Karnataka",
        "amenity": "hospital",
        "emergency": "no",
        "name": "Jayanagar Orthopaedic Centre",
        "source": "OpenGovernmentData"
      }
    },
    {
      "distance_km": 4.788,
      "id": 4392383890,
      "lat": 12.9368104,
      "lon": 77.6206345,
      "name": "Apollo Cradle",
      "osm_type": "node",
      "tags": {
        "addr:district": "Bengaluru Urban",
        "addr:full": "No.58, 5th Cross, 18th Main Dhanlakshmi Bank Building",
        "addr:postcode": "560095",
        "addr:state": "Karnataka",
        "addr:subdistrict": "Koramangala",
        "amenity": "hospital",
        "email": "contactus@apollocradle.com",
        "healthcare:speciality": "Maternity Services; Birthing Fertility and IVF; Woman's Health; Women Health Checks; Procedures; Cancer Evaluation; Children's Health; New Born Screening; Vaccination",
        "name": "Apollo Cradle",
        "name:en": "Apollo Cradle",
        "operator:type": "private",
        "source": "OpenGovernmentData",
        "website": "https://www.apollocradle.com/"
      }
    },
    {
      "distance_km": 4.805,
      "id": 2026076836,
      "lat": 12.9993857,
      "lon": 77.5606403,
      "name": "Nayak Hospital, Gayathri Nagar",
      "osm_type": "node",
      "tags": {
        "addr:district": "Bengaluru Urban",
        "addr:full": "No 3367,5Th Cross, Gayathri Nagar",
        "addr:postcode": "560021",
        "addr:state": "Karnataka",
        "amenity": "hospital",
        "emergency": "yes",
        "name": "Nayak Hospital, Gayathri Nagar",
        "source": "OpenGovernmentData"
      }
    },
    {
      "distance_km": 4.823,
      "id": 1468540733,
      "lat": 12.9402371,
      "lon": 77.6253403,
      "name": "Vasan Eye Care Hospital, Koramangala",
      "osm_type": "node",
      "tags": {
        "addr:district": "Bengaluru Urban",
        "addr:full": "No.897/C, 80 Feet Road, 6th Block, Koramangala",
        "addr:postcode": "560095",
        "addr:state": "Karnataka",
        "addr:subdistrict": "Koramangala",
        "amenity": "hospital",
        "emergency": "yes",
        "healthcare": "hospital",
        "name": "Vasan Eye Care Hospital, Koramangala",
        "operator:type": "private",
        "source": "OpenGovernmentData",
        "website": "http://www.vasaneye.in/"
      }
    },
    {
      "distance_km": 4.833,
      "id": 1290125198,
      "lat": 13.0043642,
      "lon": 77.5652959,
      "name": "",
      "osm_type": "node",
      "tags": {
        "amenity": "hospital"
      }
    },
    {
      "distance_km": 4.872,
      "id": 3556103531,
      "lat": 12.9826672,
      "lon": 77.6381036,
      "name": "ALDOS Medical Service Pvt LTD",
      "osm_type": "node",
      "tags": {
        "amenity": "hospital",
        "name": "ALDOS Medical Service Pvt LTD"
      }
    },
    {
      "distance_km": 4.901,
      "id": 4406333893,
      "lat": 12.9717049,
      "lon": 77.5493718,
      "name": "Shiva Kumaraswamy Building",
      "osm_type": "node",
      "tags": {
        "amenity": "hospital",
        "name": "Shiva Kumaraswamy Building",
        "name:en": "shiva kumaraswamy building"
      }
    }
  ]
}